OBJECT_NAME,OBJECT_ID,EPOCH,MEAN_MOTION,ECCENTRICITY,INCLINATION,RA_OF_ASC_NODE,ARG_OF_PERICENTER,MEAN_ANOMALY,EPHEMERIS_TYPE,CLASSIFICATION_TYPE,NORAD_CAT_ID,ELEMENT_SET_NO,REV_AT_EPOCH,BSTAR,MEAN_MOTION_DOT,MEAN_MOTION_DDOT
STARLINK-37640,2026-127E,2026-07-01T11:40:19.161696,15.75321245,.00014381,53.1590,190.9788,77.0980,283.0201,0,U,69447,999,366,.11352536E-2,.177722E-2,0
STARLINK-37572,2026-127F,2026-07-01T12:06:55.743840,15.75345442,.00007622,53.1585,191.1015,110.0612,250.0490,0,U,69448,999,366,.11976916E-2,.18796E-2,0
STARLINK-37643,2026-127G,2026-07-01T12:13:28.092288,15.75336744,.00008761,53.1591,191.1318,86.3475,273.7646,0,U,69449,999,366,.11997551E-2,.188219E-2,0
STARLINK-37601,2026-127H,2026-06-30T22:30:44.827776,15.75262467,.00012159,53.1587,193.9665,31.3061,328.8031,0,U,69450,999,357,.11039805E-2,.172252E-2,0
STARLINK-37578,2026-127J,2026-07-01T11:53:23.501760,15.75307381,.00014142,53.1566,191.0371,82.1690,277.9491,0,U,69451,999,366,.95611746E-3,.148975E-2,0
STARLINK-37577,2026-127K,2026-07-01T11:33:46.765728,15.75303903,.00009754,53.1591,190.9467,129.2572,230.8535,0,U,69452,999,366,.74060881E-3,.114763E-2,0
STARLINK-37500,2026-127L,2026-07-01T11:47:19.664448,15.75312165,.0001456,53.1567,191.0090,85.1168,275.0019,0,U,69453,999,366,.90341798E-3,.140618E-2,0
STARLINK-37575,2026-127M,2026-07-01T11:27:43.198848,15.75315311,.00011857,53.1589,190.9184,137.4103,222.7009,0,U,69454,999,366,.11592473E-2,.181526E-2,0
STARLINK-37642,2026-127N,2026-07-01T11:53:51.874656,15.75302326,.00013606,53.1562,191.0381,80.0770,280.0404,0,U,69455,999,366,.82955346E-3,.128831E-2,0
STARLINK-37513,2026-127P,2026-07-01T06:14:57.613920,15.80982310,.0001525,53.1560,191.6831,141.2816,218.8316,0,U,69456,999,363,.10895E-2,.221036E-2,0
STARLINK-37563,2026-127Q,2026-07-01T05:28:48.792864,15.75330036,.0001127,53.1590,192.2087,97.8187,262.2962,0,U,69457,999,362,.16074E-2,.254311E-2,0
STARLINK-37565,2026-127R,2026-07-01T12:52:04.259424,15.75336979,.00012192,53.1582,190.5684,87.0139,273.1021,0,U,69458,999,367,.13108822E-2,.206155E-2,0
STARLINK-37498,2026-127S,2026-07-01T11:46:51.042720,15.75320389,.000111,53.1563,191.0044,114.1824,245.9312,0,U,69459,999,366,.93324436E-3,.145416E-2,0
STARLINK-37384,2026-127T,2026-07-01T11:27:14.838912,15.75317712,.00013988,53.1589,190.9149,125.5113,234.6038,0,U,69460,999,366,.12400865E-2,.194553E-2,0
STARLINK-37707,2026-127U,2026-07-01T12:52:32.699712,15.75313898,.00015091,53.1585,190.5691,84.6409,275.4783,0,U,69461,999,367,.91537683E-3,.142531E-2,0
STARLINK-37525,2026-127V,2026-07-01T12:45:31.974912,15.75322625,.00011077,53.1577,190.5371,125.5481,234.5643,0,U,69462,999,367,.99525441E-3,.155319E-2,0
STARLINK-37526,2026-127W,2026-07-01T12:39:28.171296,15.75343274,.00009461,53.1571,190.5107,90.5662,269.5466,0,U,69463,999,367,.12801227E-2,.201241E-2,0
STARLINK-37574,2026-127X,2026-07-01T12:46:00.336576,15.75335834,.00009901,53.1576,190.5387,103.8361,256.2769,0,U,69464,999,367,.12108305E-2,.189995E-2,0
STARLINK-37535,2026-127Y,2026-07-01T12:38:59.821728,15.75294331,.00009083,53.1567,190.5056,97.0268,263.0856,0,U,69465,999,367,.63042583E-3,.97351E-3,0
STARLINK-37583,2026-127Z,2026-07-01T14:00:01.999872,15.75174653,.00004355,53.1585,189.9139,88.5477,23.5361,0,U,69466,999,496,.13609347E-3,.20214E-3,0
STARLINK-37546,2026-127AA,2026-06-30T22:50:41.346816,15.75261917,.00012382,53.1567,193.3141,53.2729,306.8405,0,U,69467,999,358,.93494427E-3,.145308E-2,0
STARLINK-37532,2026-127AB,2026-06-30T14:25:23.445984,15.80941882,.00013555,53.1563,194.6647,84.2397,275.8781,0,U,69468,999,353,.78080762E-3,.156733E-2,0
STARLINK-37708,2026-127AC,2026-07-01T12:32:27.436128,15.75312220,.00009328,53.1565,190.4714,139.9450,220.1639,0,U,69469,999,367,.79611097E-3,.123587E-2,0
STARLINK-37686,2026-127AD,2026-07-01T00:15:30.846816,15.75280786,.0001042,53.1575,192.9679,99.7187,260.3951,0,U,69470,999,359,.14209842E-2,.223438E-2,0
STARLINK-37451,2026-127AE,2026-07-01T06:59:00.402432,15.81048240,.0001756,53.1564,191.1463,96.1313,263.9910,0,U,69471,999,364,.19132E-2,.398037E-2,0
DTC TEST OBJECT A,2026-128A,2026-07-01T11:47:55.683744,15.56518965,.00104615,54.9919,238.9149,338.2459,21.8131,0,U,69472,999,345,.42012535E-3,.29973E-3,0
DTC TEST OBJECT B,2026-128B,2026-06-27T09:02:13.824960,15.56860342,.0009934,55.0021,257.9040,325.3113,34.7274,0,U,69473,999,280,.3356545E-3,.24134E-3,0
TJS-25,2026-129A,2026-07-01T09:28:04.499328,1.00271186,.00023867,5.9694,330.2790,290.5661,280.8835,0,U,69474,999,20,0,-.356E-5,0
STARLINK-37816,2026-131A,2026-07-01T11:52:14.277216,15.80974692,.00012526,97.2835,203.6019,270.1235,89.9890,0,U,69478,999,442,.18346786E-2,.369245E-2,0
STARLINK-37878,2026-131B,2026-07-01T07:26:51.884736,15.80909294,.00017056,97.2840,203.3941,112.2434,247.9016,0,U,69479,999,439,.99940817E-3,.196503E-2,0
