STARLINK-37640          
1 69447U 26127E   26182.48633289  .00177722  00000+0  11353-2 0  9990
2 69447  53.1590 190.9788 0001438  77.0980 283.0201 15.75321245  3660
STARLINK-37572          
1 69448U 26127F   26182.50481185  .00187960  00000+0  11977-2 0  9997
2 69448  53.1585 191.1015 0000762 110.0612 250.0490 15.75345442  3669
STARLINK-37643          
1 69449U 26127G   26182.50935292  .00188219  00000+0  11998-2 0  9992
2 69449  53.1591 191.1318 0000876  86.3475 273.7646 15.75336744  3661
STARLINK-37601          
1 69450U 26127H   26181.93801884  .00172252  00000+0  11040-2 0  9997
2 69450  53.1587 193.9665 0001215  31.3061 328.8031 15.75262467  3572
STARLINK-37578          
1 69451U 26127J   26182.49541090  .00148975  00000+0  95612-3 0  9993
2 69451  53.1566 191.0371 0001414  82.1690 277.9491 15.75307381  3665
STARLINK-37577          
1 69452U 26127K   26182.48179127  .00114763  00000+0  74061-3 0  9994
2 69452  53.1591 190.9467 0000975 129.2572 230.8535 15.75303903  3664
STARLINK-37500          
1 69453U 26127L   26182.49119982  .00140618  00000+0  90342-3 0  9997
2 69453  53.1567 191.0090 0001456  85.1168 275.0019 15.75312165  3666
STARLINK-37575          
1 69454U 26127M   26182.47758332  .00181526  00000+0  11592-2 0  9996
2 69454  53.1589 190.9184 0001185 137.4103 222.7009 15.75315311  3666
STARLINK-37642          
1 69455U 26127N   26182.49573929  .00128831  00000+0  82955-3 0  9998
2 69455  53.1562 191.0381 0001360  80.0770 280.0404 15.75302326  3665
STARLINK-37513          
1 69456U 26127P   26182.26038905  .00221036  00000+0  10895-2 0  9998
2 69456  53.1560 191.6831 0001525 141.2816 218.8316 15.80982310  3635
STARLINK-37563          
1 69457U 26127Q   26182.22834251  .00254311  00000+0  16074-2 0  9990
2 69457  53.1590 192.2087 0001127  97.8187 262.2962 15.75330036  3629
STARLINK-37565          
1 69458U 26127R   26182.53616041  .00206155  00000+0  13109-2 0  9999
2 69458  53.1582 190.5684 0001219  87.0139 273.1021 15.75336979  3679
STARLINK-37498          
1 69459U 26127S   26182.49086855  .00145416  00000+0  93324-3 0  9999
2 69459  53.1563 191.0044 0001110 114.1824 245.9312 15.75320389  3665
STARLINK-37384          
1 69460U 26127T   26182.47725508  .00194553  00000+0  12401-2 0  9996
2 69460  53.1589 190.9149 0001398 125.5113 234.6038 15.75317712  3660
STARLINK-37707          
1 69461U 26127U   26182.53648958  .00142531  00000+0  91538-3 0  9995
2 69461  53.1585 190.5691 0001509  84.6409 275.4783 15.75313898  3674
STARLINK-37525          
1 69462U 26127V   26182.53162008  .00155319  00000+0  99525-3 0  9995
2 69462  53.1577 190.5371 0001107 125.5481 234.5643 15.75322625  3679
STARLINK-37526          
1 69463U 26127W   26182.52740939  .00201241  00000+0  12801-2 0  9997
2 69463  53.1571 190.5107 0000946  90.5662 269.5466 15.75343274  3677
STARLINK-37574          
1 69464U 26127X   26182.53194834  .00189995  00000+0  12108-2 0  9997
2 69464  53.1576 190.5387 0000990 103.8361 256.2769 15.75335834  3678
STARLINK-37535          
1 69465U 26127Y   26182.52708127  .00097351  00000+0  63043-3 0  9992
2 69465  53.1567 190.5056 0000908  97.0268 263.0856 15.75294331  3670
STARLINK-37583          
1 69466U 26127Z   26182.58335648  .00020214  00000+0  13609-3 0  9990
2 69466  53.1585 189.9139 0000435  88.5477  23.5361 15.75174653  4964
STARLINK-37546          
1 69467U 26127AA  26181.95186744  .00145308  00000+0  93494-3 0  9994
2 69467  53.1567 193.3141 0001238  53.2729 306.8405 15.75261917  3581
STARLINK-37532          
1 69468U 26127AB  26181.60096581  .00156733  00000+0  78081-3 0  9995
2 69468  53.1563 194.6647 0001355  84.2397 275.8781 15.80941882  3537
STARLINK-37708          
1 69469U 26127AC  26182.52253977  .00123587  00000+0  79611-3 0  9993
2 69469  53.1565 190.4714 0000932 139.9450 220.1639 15.75312220  3679
STARLINK-37686          
1 69470U 26127AD  26182.01077369  .00223438  00000+0  14210-2 0  9997
2 69470  53.1575 192.9679 0001042  99.7187 260.3951 15.75280786  3597
STARLINK-37451          
1 69471U 26127AE  26182.29097688  .00398037  00000+0  19132-2 0  9990
2 69471  53.1564 191.1463 0001756  96.1313 263.9910 15.81048240  3646
DTC TEST OBJECT A       
1 69472U 26128A   26182.49161671  .00029973  00000+0  42013-3 0  9993
2 69472  54.9919 238.9149 0010461 338.2459  21.8131 15.56518965  3458
DTC TEST OBJECT B       
1 69473U 26128B   26178.37654890  .00024134  00000+0  33565-3 0  9992
2 69473  55.0021 257.9040 0009934 325.3113  34.7274 15.56860342  2801
TJS-25                  
1 69474U 26129A   26182.39449652 -.00000356  00000+0  00000+0 0  9994
2 69474   5.9694 330.2790 0002386 290.5661 280.8835  1.00271186   209
STARLINK-37816          
1 69478U 26131A   26182.49460969  .00369245  00000+0  18347-2 0  9996
2 69478  97.2835 203.6019 0001252 270.1235  89.9890 15.80974692  4425
STARLINK-37878          
1 69479U 26131B   26182.31032274  .00196503  00000+0  99941-3 0  9997
2 69479  97.2840 203.3941 0001705 112.2434 247.9016 15.80909294  4391
